OBJECT_NAME,OBJECT_ID,EPOCH,MEAN_MOTION,ECCENTRICITY,INCLINATION,RA_OF_ASC_NODE,ARG_OF_PERICENTER,MEAN_ANOMALY,EPHEMERIS_TYPE,CLASSIFICATION_TYPE,NORAD_CAT_ID,ELEMENT_SET_NO,REV_AT_EPOCH,BSTAR,MEAN_MOTION_DOT,MEAN_MOTION_DDOT
ONEWEB-0130,2020-100U,2026-07-01T10:42:33.911712,13.12442570,.00018665,87.8958,347.8166,97.1692,262.9649,0,U,47276,999,26651,.13969797E-2,.515E-5,0
ONEWEB-0131,2020-100V,2026-07-01T10:37:41.038176,13.12443438,.00017001,87.8946,347.8341,97.4591,262.6731,0,U,47277,999,26655,.6788381E-3,.257E-5,0
ONEWEB-0132,2020-100W,2026-07-01T11:19:08.400864,13.12441054,.0001759,87.8948,347.8304,94.7789,265.3541,0,U,47278,999,26645,-.27068005E-3,-.85E-6,0
ONEWEB-0133,2020-100X,2026-07-01T11:43:20.267328,13.12443217,.00016749,87.8961,347.8046,95.8696,264.2623,0,U,47279,999,26661,-.11783689E-2,-.411E-5,0
ONEWEB-0134,2020-100Y,2026-07-01T10:59:37.760352,13.12441134,.00018466,87.8961,347.8078,102.0273,258.1062,0,U,47280,999,26658,.97409498E-3,.363E-5,0
ONEWEB-0135,2020-100Z,2026-07-01T12:07:56.291232,13.12443815,.00017491,87.8948,347.8195,103.0670,257.0654,0,U,47281,999,26661,.50782408E-4,.31E-6,0
ONEWEB-0136,2020-100AA,2026-07-01T10:44:59.894880,13.12442123,.00018847,87.8955,347.8134,104.2066,255.9272,0,U,47282,999,26653,.14054085E-2,.518E-5,0
ONEWEB-0137,2020-100AB,2026-07-01T11:33:46.883232,13.12442775,.00018705,87.8962,347.8173,89.1281,271.0062,0,U,47283,999,26644,-.94442887E-3,-.327E-5,0
ONEWEB-0138,2020-100AC,2026-07-01T11:02:04.528896,13.12441100,.00019253,87.8956,347.8264,101.1261,259.0084,0,U,47284,999,26652,.88917302E-3,.333E-5,0
ONEWEB-0139,2020-100AD,2026-07-01T12:00:49.530528,13.12443477,.00018819,87.8954,347.8048,93.7528,266.3816,0,U,47285,999,26660,-.27793727E-3,-.87E-6,0
ONEWEB-0140,2020-100AE,2026-07-01T10:54:45.396576,13.12441564,.00016457,87.8957,347.8052,94.8279,265.3038,0,U,47286,999,26656,.12660485E-2,.468E-5,0
ONEWEB-0141,2020-100AF,2026-07-01T12:00:25.179552,13.12443734,.00020287,87.8958,347.8012,86.8666,273.2695,0,U,47287,999,26655,-.50856846E-3,-.17E-5,0
ONEWEB-0142,2020-100AG,2026-07-01T11:43:45.227424,13.12444157,.00022573,87.8952,347.8237,92.9298,267.2089,0,U,47288,999,26654,-.10252624E-2,-.356E-5,0
ONEWEB-0143,2020-100AH,2026-07-01T11:58:10.765344,13.12444021,.00018479,87.8953,347.8216,92.5880,267.5460,0,U,47289,999,26652,-.58486544E-3,-.198E-5,0
ONEWEB-0144,2020-100AJ,2026-07-01T11:16:42.383136,13.12441010,.00021027,87.8959,347.8016,101.0150,259.1215,0,U,47290,999,26644,-.93355005E-4,-.21E-6,0
ONEWEB-0145,2020-100AK,2026-07-01T12:25:01.393536,13.12443064,.00019192,87.8949,347.8186,94.6357,265.4991,0,U,47291,999,26664,.97098433E-3,.362E-5,0
ONEWEB-0146,2020-100AL,2026-07-01T12:20:08.698848,13.12443423,.00014712,87.8959,347.8121,88.1557,271.9740,0,U,47292,999,26655,.70435747E-3,.266E-5,0
ONEWEB-0147,2020-100AM,2026-07-01T11:31:20.702208,13.12441969,.00017757,87.8958,347.8004,97.9728,262.1602,0,U,47293,999,26644,-.86619993E-3,-.299E-5,0
ONEWEB-0115,2021-025A,2026-07-01T02:47:21.154848,13.13470813,.00018129,87.8970,317.4507,98.6645,261.4690,0,U,48042,999,25542,-.39129396E-4,-.2E-7,0
ONEWEB-0152,2021-025B,2026-07-01T10:25:37.917696,13.13470247,.00017038,87.8977,317.3848,98.1890,261.9433,0,U,48043,999,25542,.19199164E-3,.83E-6,0
ONEWEB-0153,2021-025C,2026-07-01T02:35:08.660832,13.13469943,.00019567,87.8967,317.4517,98.9476,261.1874,0,U,48044,999,25537,-.87567572E-3,-.307E-5,0
ONEWEB-0154,2021-025D,2026-07-01T02:30:16.533792,13.13469770,.00017605,87.8976,317.4508,104.0720,256.0605,0,U,48045,999,25533,-.64894597E-3,-.224E-5,0
ONEWEB-0116,2021-025E,2026-07-01T10:45:09.343584,13.13471446,.00017734,87.8980,317.3793,99.6256,260.5073,0,U,48046,999,25552,.84928227E-3,.323E-5,0
ONEWEB-0150,2021-025F,2026-07-01T02:52:13.437408,13.13470057,.00019619,87.8978,317.4423,93.1853,266.9501,0,U,48047,999,25537,.28722279E-3,.118E-5,0
ONEWEB-0107,2021-025G,2026-07-01T02:54:39.847392,13.13469491,.00021295,87.8973,317.4377,100.0724,260.0646,0,U,48048,999,25535,-.27757819E-4,.3E-7,0
ONEWEB-0101,2021-025H,2026-07-01T07:30:07.722432,13.13470955,.00019221,87.8968,317.4137,103.0421,257.0923,0,U,48049,999,25535,-.86603808E-3,-.304E-5,0
ONEWEB-0113,2021-025J,2026-07-01T02:29:39.495840,13.13892233,.00018337,87.8969,317.3645,94.6351,265.4987,0,U,48050,999,25543,-.62390259E-3,-.216E-5,0
ONEWEB-0112,2021-025K,2026-07-01T10:20:45.216960,13.13470343,.0002017,87.8977,317.3743,105.1861,254.9492,0,U,48051,999,25546,.15795534E-3,.7E-6,0
ONEWEB-0156,2021-025L,2026-07-01T06:53:34.522368,13.13471113,.0001937,87.8979,317.4126,98.7473,261.3875,0,U,48052,999,25542,.12584276E-2,.472E-5,0
ONEWEB-0161,2021-025M,2026-07-01T02:37:34.755456,13.13469840,.00020635,87.8975,317.4493,98.3918,261.7445,0,U,48053,999,25533,-.1007546E-2,-.355E-5,0
