ONEWEB-0130             
1 47276U 20100U   26182.44622583  .00000515  00000+0  13970-2 0  9994
2 47276  87.8958 347.8166 0001866  97.1692 262.9649 13.12442570266510
ONEWEB-0131             
1 47277U 20100V   26182.44283609  .00000257  00000+0  67884-3 0  9994
2 47277  87.8946 347.8341 0001700  97.4591 262.6731 13.12443438266558
ONEWEB-0132             
1 47278U 20100W   26182.47162501 -.00000085  00000+0 -27068-3 0  9996
2 47278  87.8948 347.8304 0001759  94.7789 265.3541 13.12441054266453
ONEWEB-0133             
1 47279U 20100X   26182.48842902 -.00000411  00000+0 -11784-2 0  9998
2 47279  87.8961 347.8046 0001674  95.8696 264.2623 13.12443217266617
ONEWEB-0134             
1 47280U 20100Y   26182.45807593  .00000363  00000+0  97409-3 0  9997
2 47280  87.8961 347.8078 0001846 102.0273 258.1062 13.12441134266588
ONEWEB-0135             
1 47281U 20100Z   26182.50551263  .00000031  00000+0  50782-4 0  9990
2 47281  87.8948 347.8195 0001749 103.0670 257.0654 13.12443815266615
ONEWEB-0136             
1 47282U 20100AA  26182.44791545  .00000518  00000+0  14054-2 0  9993
2 47282  87.8955 347.8134 0001884 104.2066 255.9272 13.12442123266534
ONEWEB-0137             
1 47283U 20100AB  26182.48179263 -.00000327  00000+0 -94443-3 0  9996
2 47283  87.8962 347.8173 0001870  89.1281 271.0062 13.12442775266440
ONEWEB-0138             
1 47284U 20100AC  26182.45977464  .00000333  00000+0  88917-3 0  9997
2 47284  87.8956 347.8264 0001925 101.1261 259.0084 13.12441100266529
ONEWEB-0139             
1 47285U 20100AD  26182.50057327 -.00000087  00000+0 -27794-3 0  9995
2 47285  87.8954 347.8048 0001881  93.7528 266.3816 13.12443477266603
ONEWEB-0140             
1 47286U 20100AE  26182.45469209  .00000468  00000+0  12660-2 0  9992
2 47286  87.8957 347.8052 0001645  94.8279 265.3038 13.12441564266560
ONEWEB-0141             
1 47287U 20100AF  26182.50029143 -.00000170  00000+0 -50857-3 0  9991
2 47287  87.8958 347.8012 0002028  86.8666 273.2695 13.12443734266552
ONEWEB-0142             
1 47288U 20100AG  26182.48871791 -.00000356  00000+0 -10253-2 0  9994
2 47288  87.8952 347.8237 0002257  92.9298 267.2089 13.12444157266548
ONEWEB-0143             
1 47289U 20100AH  26182.49873571 -.00000198  00000+0 -58487-3 0  9990
2 47289  87.8953 347.8216 0001847  92.5880 267.5460 13.12444021266528
ONEWEB-0144             
1 47290U 20100AJ  26182.46993499 -.00000021  00000+0 -93355-4 0  9990
2 47290  87.8959 347.8016 0002102 101.0150 259.1215 13.12441010266446
ONEWEB-0145             
1 47291U 20100AK  26182.51737724  .00000362  00000+0  97098-3 0  9997
2 47291  87.8949 347.8186 0001919  94.6357 265.4991 13.12443064266649
ONEWEB-0146             
1 47292U 20100AL  26182.51398957  .00000266  00000+0  70436-3 0  9999
2 47292  87.8959 347.8121 0001471  88.1557 271.9740 13.12443423266556
ONEWEB-0147             
1 47293U 20100AM  26182.48010072 -.00000299  00000+0 -86620-3 0  9995
2 47293  87.8958 347.8004 0001775  97.9728 262.1602 13.12441969266441
ONEWEB-0115             
1 48042U 21025A   26182.11621707 -.00000002  00000+0 -39129-4 0  9993
2 48042  87.8970 317.4507 0001812  98.6645 261.4690 13.13470813255423
ONEWEB-0152             
1 48043U 21025B   26182.43446664  .00000083  00000+0  19199-3 0  9997
2 48043  87.8977 317.3848 0001703  98.1890 261.9433 13.13470247255425
ONEWEB-0153             
1 48044U 21025C   26182.10773913 -.00000307  00000+0 -87568-3 0  9998
2 48044  87.8967 317.4517 0001956  98.9476 261.1874 13.13469943255373
ONEWEB-0154             
1 48045U 21025D   26182.10435803 -.00000224  00000+0 -64895-3 0  9998
2 48045  87.8976 317.4508 0001760 104.0720 256.0605 13.13469770255337
ONEWEB-0116             
1 48046U 21025E   26182.44802481  .00000323  00000+0  84928-3 0  9993
2 48046  87.8980 317.3793 0001773  99.6256 260.5073 13.13471446255528
ONEWEB-0150             
1 48047U 21025F   26182.11959997  .00000118  00000+0  28722-3 0  9995
2 48047  87.8978 317.4423 0001961  93.1853 266.9501 13.13470057255374
ONEWEB-0107             
1 48048U 21025G   26182.12129453  .00000003  00000+0 -27758-4 0  9996
2 48048  87.8973 317.4377 0002129 100.0724 260.0646 13.13469491255353
ONEWEB-0101             
1 48049U 21025H   26182.31258938 -.00000304  00000+0 -86604-3 0  9998
2 48049  87.8968 317.4137 0001922 103.0421 257.0923 13.13470955255350
ONEWEB-0113             
1 48050U 21025J   26182.10392935 -.00000216  00000+0 -62390-3 0  9991
2 48050  87.8969 317.3645 0001833  94.6351 265.4987 13.13892233255433
ONEWEB-0112             
1 48051U 21025K   26182.43107890  .00000070  00000+0  15796-3 0  9996
2 48051  87.8977 317.3743 0002017 105.1861 254.9492 13.13470343255462
ONEWEB-0156             
1 48052U 21025L   26182.28720512  .00000472  00000+0  12584-2 0  9999
2 48052  87.8979 317.4126 0001937  98.7473 261.3875 13.13471113255426
ONEWEB-0161             
1 48053U 21025M   26182.10943004 -.00000355  00000+0 -10075-2 0  9999
2 48053  87.8975 317.4493 0002063  98.3918 261.7445 13.13469840255332
